start=new Date('2021-09-25T00:00:00.000Z').valueOf();
sats=[{"NORAD_CAT_ID":"49170","EPHEMERIS_TYPE":"0","COUNTRY_CODE":"US","FILE":"3126800","MEAN_ANOMALY":"272.3565","OBJECT_TYPE":"PAYLOAD","CLASSIFICATION_TYPE":"U","ARG_OF_PERICENTER":"225.9292","APOAPSIS":"339.147","MEAN_MOTION_DOT":"-0.01107323","LAUNCH_DATE":"2021-09-14","REF_FRAME":"TEME","RA_OF_ASC_NODE":"96.5258","MEAN_MOTION":"15.78813709","ELEMENT_SET_NO":"999","DECAY_DATE":null,"MEAN_ELEMENT_THEORY":"SGP4","OBJECT_NAME":"STARLINK-3074","CENTER_NAME":"EARTH","EPOCH":"2021-09-24T22:00:00.999936","TLE_LINE1":"1 49170U 21082AS  21267.91667824 -.01107323  00000-0 -69676-2 0  9990","PERIOD":"91.208","REV_AT_EPOCH":"202","TLE_LINE2":"2 49170  70.0000  96.5258 0007962 225.9292 272.3565 15.78813709  2023","ECCENTRICITY":"0.00079620","SEMIMAJOR_AXIS":"6711.938","PERIAPSIS":"328.459","GP_ID":"185431051","BSTAR":"-0.00696760000000","SITE":"AFWTR","RCS_SIZE":null,"TIME_SYSTEM":"UTC","INCLINATION":"70.0000","MEAN_MOTION_DDOT":"0.0000000000000","OBJECT_ID":"2021-082AS"},{"TLE_LINE2":"2 49171  70.0000  96.5330 0007930 226.7693 265.5201 15.78627059  2026","ECCENTRICITY":"0.00079300","SEMIMAJOR_AXIS":"6712.467","PERIAPSIS":"329.009","BSTAR":"-0.00704000000000","GP_ID":"185430835","SITE":"AFWTR","TIME_SYSTEM":"UTC","RCS_SIZE":null,"OBJECT_ID":"2021-082AT","INCLINATION":"70.0000","MEAN_MOTION_DDOT":"0.0000000000000","CENTER_NAME":"EARTH","EPOCH":"2021-09-24T22:00:00.999936","PERIOD":"91.219","TLE_LINE1":"1 49171U 21082AT  21267.91667824 -.01109153  00000-0 -70400-2 0  9991","REV_AT_EPOCH":"202","MEAN_MOTION_DOT":"-0.01109153","LAUNCH_DATE":"2021-09-14","REF_FRAME":"TEME","RA_OF_ASC_NODE":"96.5330","MEAN_MOTION":"15.78627059","MEAN_ELEMENT_THEORY":"SGP4","ELEMENT_SET_NO":"999","DECAY_DATE":null,"OBJECT_NAME":"STARLINK-3107","EPHEMERIS_TYPE":"0","NORAD_CAT_ID":"49171","FILE":"3126800","MEAN_ANOMALY":"265.5201","COUNTRY_CODE":"US","CLASSIFICATION_TYPE":"U","OBJECT_TYPE":"PAYLOAD","ARG_OF_PERICENTER":"226.7693","APOAPSIS":"339.655"},{"EPHEMERIS_TYPE":"0","NORAD_CAT_ID":"49172","FILE":"3126486","MEAN_ANOMALY":"273.1158","COUNTRY_CODE":"US","ARG_OF_PERICENTER":"226.6427","CLASSIFICATION_TYPE":"U","OBJECT_TYPE":"PAYLOAD","APOAPSIS":"338.954","LAUNCH_DATE":"2021-09-14","MEAN_MOTION_DOT":"-0.01108465","RA_OF_ASC_NODE":"96.5240","REF_FRAME":"TEME","ELEMENT_SET_NO":"999","DECAY_DATE":null,"MEAN_ELEMENT_THEORY":"SGP4","MEAN_MOTION":"15.78862613","OBJECT_NAME":"STARLINK-3091","EPOCH":"2021-09-24T22:00:00.999936","CENTER_NAME":"EARTH","TLE_LINE1":"1 49172U 21082AU  21267.91667824 -.01108465  00000-0 -69606-2 0  9993","PERIOD":"91.205","REV_AT_EPOCH":"179","TLE_LINE2":"2 49172  70.0000  96.5240 0007882 226.6427 273.1158 15.78862613  1793","SEMIMAJOR_AXIS":"6711.799","PERIAPSIS":"328.374","ECCENTRICITY":"0.00078820","SITE":"AFWTR","TIME_SYSTEM":"UTC","RCS_SIZE":null,"GP_ID":"185400519","BSTAR":"-0.00696060000000","MEAN_MOTION_DDOT":"0.0000000000000","INCLINATION":"70.0000","OBJECT_ID":"2021-082AU"},{"REV_AT_EPOCH":"180","TLE_LINE1":"1 49173U 21082AV  21267.91667824 -.00916714  00000-0 -42123-2 0  9992","PERIOD":"90.848","CENTER_NAME":"EARTH","EPOCH":"2021-09-24T22:00:00.999936","INCLINATION":"70.0001","MEAN_MOTION_DDOT":"0.0000000000000","OBJECT_ID":"2021-082AV","GP_ID":"185401132","BSTAR":"-0.00421230000000","RCS_SIZE":null,"SITE":"AFWTR","TIME_SYSTEM":"UTC","ECCENTRICITY":"0.00202890","SEMIMAJOR_AXIS":"6694.286","PERIAPSIS":"302.569","TLE_LINE2":"2 49173  70.0001  96.3942 0020289 162.7642  89.9750 15.85062348  1805","APOAPSIS":"329.733","OBJECT_TYPE":"PAYLOAD","CLASSIFICATION_TYPE":"U","ARG_OF_PERICENTER":"162.7642","MEAN_ANOMALY":"89.9750","FILE":"3126492","COUNTRY_CODE":"US","NORAD_CAT_ID":"49173","EPHEMERIS_TYPE":"0","OBJECT_NAME":"STARLINK-3045","MEAN_MOTION":"15.85062348","DECAY_DATE":null,"ELEMENT_SET_NO":"999","MEAN_ELEMENT_THEORY":"SGP4","REF_FRAME":"TEME","RA_OF_ASC_NODE":"96.3942","MEAN_MOTION_DOT":"-0.00916714","LAUNCH_DATE":"2021-09-14"},{"SITE":"AFWTR","TIME_SYSTEM":"UTC","RCS_SIZE":null,"BSTAR":"-0.00699760000000","GP_ID":"185401125","OBJECT_ID":"2021-082AW","MEAN_MOTION_DDOT":"0.0000000000000","INCLINATION":"70.0000","TLE_LINE2":"2 49174  70.0000  96.5276 0007908 227.2447 269.5708 15.78766292  2968","SEMIMAJOR_AXIS":"6712.072","PERIAPSIS":"328.629","ECCENTRICITY":"0.00079080","REV_AT_EPOCH":"296","CENTER_NAME":"EARTH","EPOCH":"2021-09-24T22:00:00.999936","PERIOD":"91.210","TLE_LINE1":"1 49174U 21082AW  21267.91667824 -.01109412  00000-0 -69976-2 0  9998","MEAN_ELEMENT_THEORY":"SGP4","DECAY_DATE":null,"ELEMENT_SET_NO":"999","MEAN_MOTION":"15.78766292","OBJECT_NAME":"STARLINK-3047","LAUNCH_DATE":"2021-09-14","MEAN_MOTION_DOT":"-0.01109412","RA_OF_ASC_NODE":"96.5276","REF_FRAME":"TEME","ARG_OF_PERICENTER":"227.2447","CLASSIFICATION_TYPE":"U","OBJECT_TYPE":"PAYLOAD","APOAPSIS":"339.245","EPHEMERIS_TYPE":"0","NORAD_CAT_ID":"49174","COUNTRY_CODE":"US","FILE":"3126492","MEAN_ANOMALY":"269.5708"},{"MEAN_ANOMALY":"274.1644","FILE":"3126492","COUNTRY_CODE":"US","EPHEMERIS_TYPE":"0","NORAD_CAT_ID":"49175","APOAPSIS":"338.824","CLASSIFICATION_TYPE":"U","OBJECT_TYPE":"PAYLOAD","ARG_OF_PERICENTER":"227.1138","REF_FRAME":"TEME","RA_OF_ASC_NODE":"96.5224","MEAN_MOTION_DOT":"-0.01108949","LAUNCH_DATE":"2021-09-14","OBJECT_NAME":"STARLINK-3087","MEAN_MOTION":"15.78907531","MEAN_ELEMENT_THEORY":"SGP4","DECAY_DATE":null,"ELEMENT_SET_NO":"999","PERIOD":"91.202","TLE_LINE1":"1 49175U 21082AX  21267.91667824 -.01108949  00000-0 -69498-2 0  9992","CENTER_NAME":"EARTH","EPOCH":"2021-09-24T22:00:00.999936","REV_AT_EPOCH":"179","ECCENTRICITY":"0.00078770","SEMIMAJOR_AXIS":"6711.672","PERIAPSIS":"328.250","TLE_LINE2":"2 49175  70.0000  96.5224 0007877 227.1138 274.1644 15.78907531  1797","OBJECT_ID":"2021-082AX","MEAN_MOTION_DDOT":"0.0000000000000","INCLINATION":"70.0000","BSTAR":"-0.00694980000000","GP_ID":"185400629","TIME_SYSTEM":"UTC","SITE":"AFWTR","RCS_SIZE":null},{"APOAPSIS":"338.356","ARG_OF_PERICENTER":"226.5732","CLASSIFICATION_TYPE":"U","OBJECT_TYPE":"PAYLOAD","FILE":"3126646","MEAN_ANOMALY":"280.6363","COUNTRY_CODE":"US","EPHEMERIS_TYPE":"0","NORAD_CAT_ID":"49176","OBJECT_NAME":"STARLINK-3069","MEAN_ELEMENT_THEORY":"SGP4","DECAY_DATE":null,"ELEMENT_SET_NO":"999","MEAN_MOTION":"15.79093966","RA_OF_ASC_NODE":"96.5153","REF_FRAME":"TEME","LAUNCH_DATE":"2021-09-14","MEAN_MOTION_DOT":"-0.01108516","REV_AT_EPOCH":"179","PERIOD":"91.192","TLE_LINE1":"1 49176U 21082AY  21267.91667824 -.01108516  00000-0 -68875-2 0  9991","EPOCH":"2021-09-24T22:00:00.999936","CENTER_NAME":"EARTH","OBJECT_ID":"2021-082AY","INCLINATION":"70.0000","MEAN_MOTION_DDOT":"0.0000000000000","SITE":"AFWTR","TIME_SYSTEM":"UTC","RCS_SIZE":null,"BSTAR":"-0.00688750000000","GP_ID":"185404774","PERIAPSIS":"327.661","SEMIMAJOR_AXIS":"6711.144","ECCENTRICITY":"0.00079680","TLE_LINE2":"2 49176  70.0000  96.5153 0007968 226.5732 280.6363 15.79093966  1792"},{"PERIAPSIS":"328.118","SEMIMAJOR_AXIS":"6711.529","ECCENTRICITY":"0.00078610","TLE_LINE2":"2 49177  70.0000  96.5206 0007861 227.0194 275.6982 15.78957770  2997","OBJECT_ID":"2021-082AZ","INCLINATION":"70.0000","MEAN_MOTION_DDOT":"0.0000000000000","SITE":"AFWTR","TIME_SYSTEM":"UTC","RCS_SIZE":null,"BSTAR":"-0.00693430000000","GP_ID":"185404275","PERIOD":"91.199","TLE_LINE1":"1 49177U 21082AZ  21267.91667824 -.01108988  00000-0 -69343-2 0  9996","EPOCH":"2021-09-24T22:00:00.999936","CENTER_NAME":"EARTH","REV_AT_EPOCH":"299","RA_OF_ASC_NODE":"96.5206","REF_FRAME":"TEME","LAUNCH_DATE":"2021-09-14","MEAN_MOTION_DOT":"-0.01108988","OBJECT_NAME":"STARLINK-3103","MEAN_ELEMENT_THEORY":"SGP4","DECAY_DATE":null,"ELEMENT_SET_NO":"999","MEAN_MOTION":"15.78957770","FILE":"3126646","MEAN_ANOMALY":"275.6982","COUNTRY_CODE":"US","EPHEMERIS_TYPE":"0","NORAD_CAT_ID":"49177","APOAPSIS":"338.670","ARG_OF_PERICENTER":"227.0194","OBJECT_TYPE":"PAYLOAD","CLASSIFICATION_TYPE":"U"},{"PERIOD":"91.194","TLE_LINE1":"1 49178U 21082BA  21267.91667824 -.01107351  00000-0 -68953-2 0  9996","CENTER_NAME":"EARTH","EPOCH":"2021-09-24T22:00:00.999936","REV_AT_EPOCH":"295","SEMIMAJOR_AXIS":"6711.283","PERIAPSIS":"327.841","ECCENTRICITY":"0.00079070","TLE_LINE2":"2 49178  70.0000  96.5171 0007907 226.1309 279.6264 15.79044725  2959","OBJECT_ID":"2021-082BA","MEAN_MOTION_DDOT":"0.0000000000000","INCLINATION":"70.0000","RCS_SIZE":null,"SITE":"AFWTR","TIME_SYSTEM":"UTC","BSTAR":"-0.00689530000000","GP_ID":"185407036","FILE":"3126757","COUNTRY_CODE":"US","MEAN_ANOMALY":"279.6264","EPHEMERIS_TYPE":"0","NORAD_CAT_ID":"49178","APOAPSIS":"338.455","ARG_OF_PERICENTER":"226.1309","CLASSIFICATION_TYPE":"U","OBJECT_TYPE":"PAYLOAD","RA_OF_ASC_NODE":"96.5171","REF_FRAME":"TEME","LAUNCH_DATE":"2021-09-14","MEAN_MOTION_DOT":"-0.01107351","OBJECT_NAME":"STARLINK-3086","MEAN_ELEMENT_THEORY":"SGP4","DECAY_DATE":null,"ELEMENT_SET_NO":"999","MEAN_MOTION":"15.79044725"},{"OBJECT_ID":"2021-082BB","INCLINATION":"70.0000","MEAN_MOTION_DDOT":"0.0000000000000","RCS_SIZE":null,"SITE":"AFWTR","TIME_SYSTEM":"UTC","BSTAR":"-0.00691900000000","GP_ID":"185404779","SEMIMAJOR_AXIS":"6711.415","PERIAPSIS":"327.953","ECCENTRICITY":"0.00079370","TLE_LINE2":"2 49179  70.0000  96.5188 0007937 226.9438 277.3395 15.78998323  1794","REV_AT_EPOCH":"179","PERIOD":"91.197","TLE_LINE1":"1 49179U 21082BB  21267.91667824 -.01108695  00000-0 -69190-2 0  9993","EPOCH":"2021-09-24T22:00:00.999936","CENTER_NAME":"EARTH","OBJECT_NAME":"STARLINK-3043","MEAN_ELEMENT_THEORY":"SGP4","DECAY_DATE":null,"ELEMENT_SET_NO":"999","MEAN_MOTION":"15.78998323","RA_OF_ASC_NODE":"96.5188","REF_FRAME":"TEME","LAUNCH_DATE":"2021-09-14","MEAN_MOTION_DOT":"-0.01108695","APOAPSIS":"338.606","ARG_OF_PERICENTER":"226.9438","CLASSIFICATION_TYPE":"U","OBJECT_TYPE":"PAYLOAD","MEAN_ANOMALY":"277.3395","FILE":"3126646","COUNTRY_CODE":"US","EPHEMERIS_TYPE":"0","NORAD_CAT_ID":"49179"}];
